<?xml version="1.0" encoding="UTF-8"?>
<ndm xmlns:xsi="http://www.w3.org/2001/XMLSchema-instance" xsi:noNamespaceSchemaLocation="https://sanaregistry.org/r/ndmxml_unqualified/ndmxml-2.0.0-master-2.0.xsd">
<omm id="CCSDS_OMM_VERS" version="2.0">
<header><CREATION_DATE/><ORIGINATOR/></header><body><segment><metadata><OBJECT_NAME>KUIPER-00106</OBJECT_NAME><OBJECT_ID>2025-171N</OBJECT_ID><CENTER_NAME>EARTH</CENTER_NAME><REF_FRAME>TEME</REF_FRAME><TIME_SYSTEM>UTC</TIME_SYSTEM><MEAN_ELEMENT_THEORY>SGP4</MEAN_ELEMENT_THEORY></metadata><data><meanElements><EPOCH>2026-01-13T12:05:22.252992</EPOCH><MEAN_MOTION>14.96931385</MEAN_MOTION><ECCENTRICITY>.00080368</ECCENTRICITY><INCLINATION>51.8943</INCLINATION><RA_OF_ASC_NODE>45.6914</RA_OF_ASC_NODE><ARG_OF_PERICENTER>279.2123</ARG_OF_PERICENTER><MEAN_ANOMALY>80.7937</MEAN_ANOMALY></meanElements><tleParameters><EPHEMERIS_TYPE>0</EPHEMERIS_TYPE><CLASSIFICATION_TYPE>U</CLASSIFICATION_TYPE><NORAD_CAT_ID>65144</NORAD_CAT_ID><ELEMENT_SET_NO>999</ELEMENT_SET_NO><REV_AT_EPOCH>2467</REV_AT_EPOCH><BSTAR>.38192858E-3</BSTAR><MEAN_MOTION_DOT>.418E-4</MEAN_MOTION_DOT><MEAN_MOTION_DDOT>0</MEAN_MOTION_DDOT></tleParameters></data></segment></body></omm>
<omm id="CCSDS_OMM_VERS" version="2.0">
<header><CREATION_DATE/><ORIGINATOR/></header><body><segment><metadata><OBJECT_NAME>KUIPER-00107</OBJECT_NAME><OBJECT_ID>2025-171P</OBJECT_ID><CENTER_NAME>EARTH</CENTER_NAME><REF_FRAME>TEME</REF_FRAME><TIME_SYSTEM>UTC</TIME_SYSTEM><MEAN_ELEMENT_THEORY>SGP4</MEAN_ELEMENT_THEORY></metadata><data><meanElements><EPOCH>2026-01-13T07:31:40.001088</EPOCH><MEAN_MOTION>14.79927898</MEAN_MOTION><ECCENTRICITY>.00007013</ECCENTRICITY><INCLINATION>51.9013</INCLINATION><RA_OF_ASC_NODE>32.9617</RA_OF_ASC_NODE><ARG_OF_PERICENTER>58.9355</ARG_OF_PERICENTER><MEAN_ANOMALY>301.1676</MEAN_ANOMALY></meanElements><tleParameters><EPHEMERIS_TYPE>0</EPHEMERIS_TYPE><CLASSIFICATION_TYPE>U</CLASSIFICATION_TYPE><NORAD_CAT_ID>65145</NORAD_CAT_ID><ELEMENT_SET_NO>999</ELEMENT_SET_NO><REV_AT_EPOCH>2483</REV_AT_EPOCH><BSTAR>-.6169386E-3</BSTAR><MEAN_MOTION_DOT>-.492E-4</MEAN_MOTION_DOT><MEAN_MOTION_DDOT>0</MEAN_MOTION_DDOT></tleParameters></data></segment></body></omm>
<omm id="CCSDS_OMM_VERS" version="2.0">
<header><CREATION_DATE/><ORIGINATOR/></header><body><segment><metadata><OBJECT_NAME>KUIPER-00108</OBJECT_NAME><OBJECT_ID>2025-171Q</OBJECT_ID><CENTER_NAME>EARTH</CENTER_NAME><REF_FRAME>TEME</REF_FRAME><TIME_SYSTEM>UTC</TIME_SYSTEM><MEAN_ELEMENT_THEORY>SGP4</MEAN_ELEMENT_THEORY></metadata><data><meanElements><EPOCH>2026-01-13T11:15:22.061376</EPOCH><MEAN_MOTION>14.79921075</MEAN_MOTION><ECCENTRICITY>.00055166</ECCENTRICITY><INCLINATION>51.9030</INCLINATION><RA_OF_ASC_NODE>44.7813</RA_OF_ASC_NODE><ARG_OF_PERICENTER>306.1584</ARG_OF_PERICENTER><MEAN_ANOMALY>53.8868</MEAN_ANOMALY></meanElements><tleParameters><EPHEMERIS_TYPE>0</EPHEMERIS_TYPE><CLASSIFICATION_TYPE>U</CLASSIFICATION_TYPE><NORAD_CAT_ID>65146</NORAD_CAT_ID><ELEMENT_SET_NO>999</ELEMENT_SET_NO><REV_AT_EPOCH>2468</REV_AT_EPOCH><BSTAR>.47458015E-3</BSTAR><MEAN_MOTION_DOT>.3397E-4</MEAN_MOTION_DOT><MEAN_MOTION_DDOT>0</MEAN_MOTION_DDOT></tleParameters></data></segment></body></omm>
<omm id="CCSDS_OMM_VERS" version="2.0">
<header><CREATION_DATE/><ORIGINATOR/></header><body><segment><metadata><OBJECT_NAME>KUIPER-00109</OBJECT_NAME><OBJECT_ID>2025-171R</OBJECT_ID><CENTER_NAME>EARTH</CENTER_NAME><REF_FRAME>TEME</REF_FRAME><TIME_SYSTEM>UTC</TIME_SYSTEM><MEAN_ELEMENT_THEORY>SGP4</MEAN_ELEMENT_THEORY></metadata><data><meanElements><EPOCH>2026-01-13T10:34:30.917568</EPOCH><MEAN_MOTION>14.79919872</MEAN_MOTION><ECCENTRICITY>.00114261</ECCENTRICITY><INCLINATION>51.9037</INCLINATION><RA_OF_ASC_NODE>39.8506</RA_OF_ASC_NODE><ARG_OF_PERICENTER>309.5413</ARG_OF_PERICENTER><MEAN_ANOMALY>50.4539</MEAN_ANOMALY></meanElements><tleParameters><EPHEMERIS_TYPE>0</EPHEMERIS_TYPE><CLASSIFICATION_TYPE>U</CLASSIFICATION_TYPE><NORAD_CAT_ID>65147</NORAD_CAT_ID><ELEMENT_SET_NO>999</ELEMENT_SET_NO><REV_AT_EPOCH>2474</REV_AT_EPOCH><BSTAR>.45872285E-3</BSTAR><MEAN_MOTION_DOT>.3277E-4</MEAN_MOTION_DOT><MEAN_MOTION_DDOT>0</MEAN_MOTION_DDOT></tleParameters></data></segment></body></omm>
<omm id="CCSDS_OMM_VERS" version="2.0">
<header><CREATION_DATE/><ORIGINATOR/></header><body><segment><metadata><OBJECT_NAME>KUIPER-00110</OBJECT_NAME><OBJECT_ID>2025-171S</OBJECT_ID><CENTER_NAME>EARTH</CENTER_NAME><REF_FRAME>TEME</REF_FRAME><TIME_SYSTEM>UTC</TIME_SYSTEM><MEAN_ELEMENT_THEORY>SGP4</MEAN_ELEMENT_THEORY></metadata><data><meanElements><EPOCH>2026-01-13T09:26:26.018880</EPOCH><MEAN_MOTION>14.79924607</MEAN_MOTION><ECCENTRICITY>.00024822</ECCENTRICITY><INCLINATION>51.8997</INCLINATION><RA_OF_ASC_NODE>52.6579</RA_OF_ASC_NODE><ARG_OF_PERICENTER>358.8056</ARG_OF_PERICENTER><MEAN_ANOMALY>1.2900</MEAN_ANOMALY></meanElements><tleParameters><EPHEMERIS_TYPE>0</EPHEMERIS_TYPE><CLASSIFICATION_TYPE>U</CLASSIFICATION_TYPE><NORAD_CAT_ID>65148</NORAD_CAT_ID><ELEMENT_SET_NO>999</ELEMENT_SET_NO><REV_AT_EPOCH>2455</REV_AT_EPOCH><BSTAR>.52210354E-4</BSTAR><MEAN_MOTION_DOT>.176E-5</MEAN_MOTION_DOT><MEAN_MOTION_DDOT>0</MEAN_MOTION_DDOT></tleParameters></data></segment></body></omm>
<omm id="CCSDS_OMM_VERS" version="2.0">
<header><CREATION_DATE/><ORIGINATOR/></header><body><segment><metadata><OBJECT_NAME>KUIPER-00111</OBJECT_NAME><OBJECT_ID>2025-171T</OBJECT_ID><CENTER_NAME>EARTH</CENTER_NAME><REF_FRAME>TEME</REF_FRAME><TIME_SYSTEM>UTC</TIME_SYSTEM><MEAN_ELEMENT_THEORY>SGP4</MEAN_ELEMENT_THEORY></metadata><data><meanElements><EPOCH>2026-01-13T10:07:21.060192</EPOCH><MEAN_MOTION>14.79951048</MEAN_MOTION><ECCENTRICITY>.00081557</ECCENTRICITY><INCLINATION>51.9001</INCLINATION><RA_OF_ASC_NODE>57.4592</RA_OF_ASC_NODE><ARG_OF_PERICENTER>300.4163</ARG_OF_PERICENTER><MEAN_ANOMALY>59.5993</MEAN_ANOMALY></meanElements><tleParameters><EPHEMERIS_TYPE>0</EPHEMERIS_TYPE><CLASSIFICATION_TYPE>U</CLASSIFICATION_TYPE><NORAD_CAT_ID>65149</NORAD_CAT_ID><ELEMENT_SET_NO>999</ELEMENT_SET_NO><REV_AT_EPOCH>2449</REV_AT_EPOCH><BSTAR>.57887975E-3</BSTAR><MEAN_MOTION_DOT>.4197E-4</MEAN_MOTION_DOT><MEAN_MOTION_DDOT>0</MEAN_MOTION_DDOT></tleParameters></data></segment></body></omm>
<omm id="CCSDS_OMM_VERS" version="2.0">
<header><CREATION_DATE/><ORIGINATOR/></header><body><segment><metadata><OBJECT_NAME>KUIPER-00112</OBJECT_NAME><OBJECT_ID>2025-171U</OBJECT_ID><CENTER_NAME>EARTH</CENTER_NAME><REF_FRAME>TEME</REF_FRAME><TIME_SYSTEM>UTC</TIME_SYSTEM><MEAN_ELEMENT_THEORY>SGP4</MEAN_ELEMENT_THEORY></metadata><data><meanElements><EPOCH>2026-01-13T08:08:36.807360</EPOCH><MEAN_MOTION>14.79920792</MEAN_MOTION><ECCENTRICITY>.00083312</ECCENTRICITY><INCLINATION>51.9027</INCLINATION><RA_OF_ASC_NODE>40.3535</RA_OF_ASC_NODE><ARG_OF_PERICENTER>341.2635</ARG_OF_PERICENTER><MEAN_ANOMALY>18.8020</MEAN_ANOMALY></meanElements><tleParameters><EPHEMERIS_TYPE>0</EPHEMERIS_TYPE><CLASSIFICATION_TYPE>U</CLASSIFICATION_TYPE><NORAD_CAT_ID>65150</NORAD_CAT_ID><ELEMENT_SET_NO>999</ELEMENT_SET_NO><REV_AT_EPOCH>2472</REV_AT_EPOCH><BSTAR>.49383193E-3</BSTAR><MEAN_MOTION_DOT>.3544E-4</MEAN_MOTION_DOT><MEAN_MOTION_DDOT>0</MEAN_MOTION_DDOT></tleParameters></data></segment></body></omm>
<omm id="CCSDS_OMM_VERS" version="2.0">
<header><CREATION_DATE/><ORIGINATOR/></header><body><segment><metadata><OBJECT_NAME>KUIPER-00114</OBJECT_NAME><OBJECT_ID>2025-171V</OBJECT_ID><CENTER_NAME>EARTH</CENTER_NAME><REF_FRAME>TEME</REF_FRAME><TIME_SYSTEM>UTC</TIME_SYSTEM><MEAN_ELEMENT_THEORY>SGP4</MEAN_ELEMENT_THEORY></metadata><data><meanElements><EPOCH>2026-01-13T10:03:22.079520</EPOCH><MEAN_MOTION>14.79909711</MEAN_MOTION><ECCENTRICITY>.00053104</ECCENTRICITY><INCLINATION>51.9012</INCLINATION><RA_OF_ASC_NODE>60.0115</RA_OF_ASC_NODE><ARG_OF_PERICENTER>287.6413</ARG_OF_PERICENTER><MEAN_ANOMALY>72.3970</MEAN_ANOMALY></meanElements><tleParameters><EPHEMERIS_TYPE>0</EPHEMERIS_TYPE><CLASSIFICATION_TYPE>U</CLASSIFICATION_TYPE><NORAD_CAT_ID>65151</NORAD_CAT_ID><ELEMENT_SET_NO>999</ELEMENT_SET_NO><REV_AT_EPOCH>2445</REV_AT_EPOCH><BSTAR>-.73469149E-4</BSTAR><MEAN_MOTION_DOT>-.782E-5</MEAN_MOTION_DOT><MEAN_MOTION_DDOT>0</MEAN_MOTION_DDOT></tleParameters></data></segment></body></omm>
<omm id="CCSDS_OMM_VERS" version="2.0">
<header><CREATION_DATE/><ORIGINATOR/></header><body><segment><metadata><OBJECT_NAME>KUIPER-00115</OBJECT_NAME><OBJECT_ID>2025-171W</OBJECT_ID><CENTER_NAME>EARTH</CENTER_NAME><REF_FRAME>TEME</REF_FRAME><TIME_SYSTEM>UTC</TIME_SYSTEM><MEAN_ELEMENT_THEORY>SGP4</MEAN_ELEMENT_THEORY></metadata><data><meanElements><EPOCH>2026-01-13T08:38:01.876416</EPOCH><MEAN_MOTION>14.79877413</MEAN_MOTION><ECCENTRICITY>.00096709</ECCENTRICITY><INCLINATION>51.9017</INCLINATION><RA_OF_ASC_NODE>52.7585</RA_OF_ASC_NODE><ARG_OF_PERICENTER>310.4641</ARG_OF_PERICENTER><MEAN_ANOMALY>49.5478</MEAN_ANOMALY></meanElements><tleParameters><EPHEMERIS_TYPE>0</EPHEMERIS_TYPE><CLASSIFICATION_TYPE>U</CLASSIFICATION_TYPE><NORAD_CAT_ID>65152</NORAD_CAT_ID><ELEMENT_SET_NO>999</ELEMENT_SET_NO><REV_AT_EPOCH>2455</REV_AT_EPOCH><BSTAR>.31820792E-3</BSTAR><MEAN_MOTION_DOT>.2202E-4</MEAN_MOTION_DOT><MEAN_MOTION_DDOT>0</MEAN_MOTION_DDOT></tleParameters></data></segment></body></omm>

</ndm>
